[{"OBJECT_NAME":"ONEWEB-0228","OBJECT_ID":"2021-045P","EPOCH":"2026-04-15T04:41:53.627712","MEAN_MOTION":13.15548137,"ECCENTRICITY":0.0001882,"INCLINATION":87.8953,"RA_OF_ASC_NODE":271.7415,"ARG_OF_PERICENTER":93.8166,"MEAN_ANOMALY":266.318,"EPHEMERIS_TYPE":0,"CLASSIFICATION_TYPE":"U","NORAD_CAT_ID":48780,"ELEMENT_SET_NO":999,"REV_AT_EPOCH":23604,"BSTAR":-0.00023003999999999999,"MEAN_MOTION_DOT":-7.4e-07,"MEAN_MOTION_DDOT":0.0},{"OBJECT_NAME":"ONEWEB-0232","OBJECT_ID":"2021-045Q","EPOCH":"2026-04-15T04:05:10.684320","MEAN_MOTION":13.15545016,"ECCENTRICITY":0.000174,"INCLINATION":87.8957,"RA_OF_ASC_NODE":271.7488,"ARG_OF_PERICENTER":93.1215,"MEAN_ANOMALY":267.0115,"EPHEMERIS_TYPE":0,"CLASSIFICATION_TYPE":"U","NORAD_CAT_ID":48781,"ELEMENT_SET_NO":999,"REV_AT_EPOCH":23636,"BSTAR":-0.000259,"MEAN_MOTION_DOT":-8.5e-07,"MEAN_MOTION_DDOT":0.0},{"OBJECT_NAME":"ONEWEB-0231","OBJECT_ID":"2021-045R","EPOCH":"2026-04-15T03:33:14.508576","MEAN_MOTION":13.15543417,"ECCENTRICITY":0.0002046,"INCLINATION":87.8935,"RA_OF_ASC_NODE":271.7731,"ARG_OF_PERICENTER":90.8823,"MEAN_ANOMALY":269.2542,"EPHEMERIS_TYPE":0,"CLASSIFICATION_TYPE":"U","NORAD_CAT_ID":48782,"ELEMENT_SET_NO":999,"REV_AT_EPOCH":23605,"BSTAR":-0.00096198,"MEAN_MOTION_DOT":-3.49e-06,"MEAN_MOTION_DDOT":0.0},{"OBJECT_NAME":"ONEWEB-0234","OBJECT_ID":"2021-045S","EPOCH":"2026-04-15T04:27:48.391200","MEAN_MOTION":13.1554917,"ECCENTRICITY":0.0001098,"INCLINATION":87.8941,"RA_OF_ASC_NODE":271.744,"ARG_OF_PERICENTER":74.6446,"MEAN_ANOMALY":285.4806,"EPHEMERIS_TYPE":0,"CLASSIFICATION_TYPE":"U","NORAD_CAT_ID":48783,"ELEMENT_SET_NO":999,"REV_AT_EPOCH":23619,"BSTAR":-0.00024676,"MEAN_MOTION_DOT":-8e-07,"MEAN_MOTION_DDOT":0.0},{"OBJECT_NAME":"ONEWEB-0238","OBJECT_ID":"2021-045T","EPOCH":"2026-04-15T04:28:12.040608","MEAN_MOTION":13.15548006,"ECCENTRICITY":0.0001428,"INCLINATION":87.8935,"RA_OF_ASC_NODE":271.7372,"ARG_OF_PERICENTER":87.5416,"MEAN_ANOMALY":272.5878,"EPHEMERIS_TYPE":0,"CLASSIFICATION_TYPE":"U","NORAD_CAT_ID":48784,"ELEMENT_SET_NO":999,"REV_AT_EPOCH":23609,"BSTAR":-0.00044458,"MEAN_MOTION_DOT":-1.55e-06,"MEAN_MOTION_DDOT":0.0},{"OBJECT_NAME":"ONEWEB-0240","OBJECT_ID":"2021-045U","EPOCH":"2026-04-15T04:58:47.602560","MEAN_MOTION":13.15546622,"ECCENTRICITY":0.0001883,"INCLINATION":87.8954,"RA_OF_ASC_NODE":271.741,"ARG_OF_PERICENTER":84.709,"MEAN_ANOMALY":275.4255,"EPHEMERIS_TYPE":0,"CLASSIFICATION_TYPE":"U","NORAD_CAT_ID":48785,"ELEMENT_SET_NO":999,"REV_AT_EPOCH":23612,"BSTAR":0.00030308,"MEAN_MOTION_DOT":1.27e-06,"MEAN_MOTION_DDOT":0.0},{"OBJECT_NAME":"ONEWEB-0246","OBJECT_ID":"2021-045V","EPOCH":"2026-04-15T04:50:48.906816","MEAN_MOTION":13.15547558,"ECCENTRICITY":0.0001916,"INCLINATION":87.8943,"RA_OF_ASC_NODE":271.7487,"ARG_OF_PERICENTER":96.9459,"MEAN_ANOMALY":263.1889,"EPHEMERIS_TYPE":0,"CLASSIFICATION_TYPE":"U","NORAD_CAT_ID":48786,"ELEMENT_SET_NO":999,"REV_AT_EPOCH":23599,"BSTAR":-7.692600000000002e-05,"MEAN_MOTION_DOT":-1.6e-07,"MEAN_MOTION_DDOT":0.0},{"OBJECT_NAME":"ONEWEB-0210","OBJECT_ID":"2021-045W","EPOCH":"2026-04-14T22:45:44.085024","MEAN_MOTION":13.15547152,"ECCENTRICITY":0.0002679,"INCLINATION":87.8947,"RA_OF_ASC_NODE":271.796,"ARG_OF_PERICENTER":98.8262,"MEAN_ANOMALY":261.3172,"EPHEMERIS_TYPE":0,"CLASSIFICATION_TYPE":"U","NORAD_CAT_ID":48787,"ELEMENT_SET_NO":999,"REV_AT_EPOCH":23600,"BSTAR":-0.00036820000000000006,"MEAN_MOTION_DOT":-1.26e-06,"MEAN_MOTION_DDOT":0.0},{"OBJECT_NAME":"ONEWEB-0214","OBJECT_ID":"2021-045X","EPOCH":"2026-04-15T04:26:50.116128","MEAN_MOTION":13.15550549,"ECCENTRICITY":0.0002145,"INCLINATION":87.8946,"RA_OF_ASC_NODE":271.7449,"ARG_OF_PERICENTER":101.5871,"MEAN_ANOMALY":258.5501,"EPHEMERIS_TYPE":0,"CLASSIFICATION_TYPE":"U","NORAD_CAT_ID":48788,"ELEMENT_SET_NO":999,"REV_AT_EPOCH":23600,"BSTAR":-0.00029687,"MEAN_MOTION_DOT":-9.9e-07,"MEAN_MOTION_DDOT":0.0},{"OBJECT_NAME":"ONEWEB-0221","OBJECT_ID":"2021-045Y","EPOCH":"2026-04-15T04:37:07.235040","MEAN_MOTION":13.15548024,"ECCENTRICITY":0.0001938,"INCLINATION":87.8943,"RA_OF_ASC_NODE":271.7532,"ARG_OF_PERICENTER":91.1571,"MEAN_ANOMALY":268.9782,"EPHEMERIS_TYPE":0,"CLASSIFICATION_TYPE":"U","NORAD_CAT_ID":48789,"ELEMENT_SET_NO":999,"REV_AT_EPOCH":23609,"BSTAR":-0.00017354,"MEAN_MOTION_DOT":-5.3e-07,"MEAN_MOTION_DDOT":0.0},{"OBJECT_NAME":"ONEWEB-0213","OBJECT_ID":"2021-045Z","EPOCH":"2026-04-15T04:21:08.523360","MEAN_MOTION":13.15548013,"ECCENTRICITY":0.0002096,"INCLINATION":87.8944,"RA_OF_ASC_NODE":271.759,"ARG_OF_PERICENTER":92.64,"MEAN_ANOMALY":267.497,"EPHEMERIS_TYPE":0,"CLASSIFICATION_TYPE":"U","NORAD_CAT_ID":48790,"ELEMENT_SET_NO":999,"REV_AT_EPOCH":23615,"BSTAR":-0.00019816000000000001,"MEAN_MOTION_DOT":-6.2e-07,"MEAN_MOTION_DDOT":0.0},{"OBJECT_NAME":"ONEWEB-0212","OBJECT_ID":"2021-045AA","EPOCH":"2026-04-15T03:48:02.628864","MEAN_MOTION":13.15550592,"ECCENTRICITY":0.0001715,"INCLINATION":87.8947,"RA_OF_ASC_NODE":271.7582,"ARG_OF_PERICENTER":94.7835,"MEAN_ANOMALY":265.3492,"EPHEMERIS_TYPE":0,"CLASSIFICATION_TYPE":"U","NORAD_CAT_ID":48791,"ELEMENT_SET_NO":999,"REV_AT_EPOCH":23614,"BSTAR":8.2552e-06,"MEAN_MOTION_DOT":1.6e-07,"MEAN_MOTION_DDOT":0.0},{"OBJECT_NAME":"ONEWEB-0227","OBJECT_ID":"2021-045AB","EPOCH":"2026-04-15T03:46:55.301664","MEAN_MOTION":13.1554896,"ECCENTRICITY":0.0001825,"INCLINATION":87.8944,"RA_OF_ASC_NODE":271.7602,"ARG_OF_PERICENTER":92.3874,"MEAN_ANOMALY":267.7465,"EPHEMERIS_TYPE":0,"CLASSIFICATION_TYPE":"U","NORAD_CAT_ID":48792,"ELEMENT_SET_NO":999,"REV_AT_EPOCH":23609,"BSTAR":0.00017773,"MEAN_MOTION_DOT":8e-07,"MEAN_MOTION_DDOT":0.0},{"OBJECT_NAME":"ONEWEB-0226","OBJECT_ID":"2021-045AC","EPOCH":"2026-04-15T05:27:18.666432","MEAN_MOTION":13.1554865,"ECCENTRICITY":0.0002079,"INCLINATION":87.8936,"RA_OF_ASC_NODE":271.7527,"ARG_OF_PERICENTER":95.6858,"MEAN_ANOMALY":264.451,"EPHEMERIS_TYPE":0,"CLASSIFICATION_TYPE":"U","NORAD_CAT_ID":48793,"ELEMENT_SET_NO":999,"REV_AT_EPOCH":23607,"BSTAR":0.00026648,"MEAN_MOTION_DOT":1.13e-06,"MEAN_MOTION_DDOT":0.0},{"OBJECT_NAME":"ONEWEB-0224","OBJECT_ID":"2021-045AD","EPOCH":"2026-04-15T04:34:49.920384","MEAN_MOTION":13.15546931,"ECCENTRICITY":0.0001704,"INCLINATION":87.8935,"RA_OF_ASC_NODE":271.7962,"ARG_OF_PERICENTER":65.7299,"MEAN_ANOMALY":294.401,"EPHEMERIS_TYPE":0,"CLASSIFICATION_TYPE":"U","NORAD_CAT_ID":48794,"ELEMENT_SET_NO":999,"REV_AT_EPOCH":23599,"BSTAR":-0.00018669,"MEAN_MOTION_DOT":-5.7e-07,"MEAN_MOTION_DDOT":0.0},{"OBJECT_NAME":"ONEWEB-0233","OBJECT_ID":"2021-045AE","EPOCH":"2026-04-15T04:41:29.727744","MEAN_MOTION":13.1554781,"ECCENTRICITY":0.0001978,"INCLINATION":87.8932,"RA_OF_ASC_NODE":271.8036,"ARG_OF_PERICENTER":88.0037,"MEAN_ANOMALY":272.132,"EPHEMERIS_TYPE":0,"CLASSIFICATION_TYPE":"U","NORAD_CAT_ID":48795,"ELEMENT_SET_NO":999,"REV_AT_EPOCH":23601,"BSTAR":-0.00010787,"MEAN_MOTION_DOT":-2.8e-07,"MEAN_MOTION_DDOT":0.0}]