ONEWEB-0228             
1 48780U 21045P   26105.19575958 -.00000074  00000+0 -23004-3 0  9996
2 48780  87.8953 271.7415 0001882  93.8166 266.3180 13.15548137236047
ONEWEB-0232             
1 48781U 21045Q   26105.17026255 -.00000085  00000+0 -25900-3 0  9995
2 48781  87.8957 271.7488 0001740  93.1215 267.0115 13.15545016236367
ONEWEB-0231             
1 48782U 21045R   26105.14808459 -.00000349  00000+0 -96198-3 0  9997
2 48782  87.8935 271.7731 0002046  90.8823 269.2542 13.15543417236051
ONEWEB-0234             
1 48783U 21045S   26105.18597675 -.00000080  00000+0 -24676-3 0  9991
2 48783  87.8941 271.7440 0001098  74.6446 285.4806 13.15549170236193
ONEWEB-0238             
1 48784U 21045T   26105.18625047 -.00000155  00000+0 -44458-3 0  9990
2 48784  87.8935 271.7372 0001428  87.5416 272.5878 13.15548006236090
ONEWEB-0240             
1 48785U 21045U   26105.20749540  .00000127  00000+0  30308-3 0  9995
2 48785  87.8954 271.7410 0001883  84.7090 275.4255 13.15546622236124
ONEWEB-0246             
1 48786U 21045V   26105.20195494 -.00000016  00000+0 -76926-4 0  9995
2 48786  87.8943 271.7487 0001916  96.9459 263.1889 13.15547558235998
ONEWEB-0210             
1 48787U 21045W   26104.94842691 -.00000126  00000+0 -36820-3 0  9994
2 48787  87.8947 271.7960 0002679  98.8262 261.3172 13.15547152236007
ONEWEB-0214             
1 48788U 21045X   26105.18530227 -.00000099  00000+0 -29687-3 0  9993
2 48788  87.8946 271.7449 0002145 101.5871 258.5501 13.15550549236003
ONEWEB-0221             
1 48789U 21045Y   26105.19244485 -.00000053  00000+0 -17354-3 0  9991
2 48789  87.8943 271.7532 0001938  91.1571 268.9782 13.15548024236094
ONEWEB-0213             
1 48790U 21045Z   26105.18134865 -.00000062  00000+0 -19816-3 0  9997
2 48790  87.8944 271.7590 0002096  92.6400 267.4970 13.15548013236152
ONEWEB-0212             
1 48791U 21045AA  26105.15836376  .00000016  00000+0  82552-5 0  9997
2 48791  87.8947 271.7582 0001715  94.7835 265.3492 13.15550592236149
ONEWEB-0227             
1 48792U 21045AB  26105.15758451  .00000080  00000+0  17773-3 0  9997
2 48792  87.8944 271.7602 0001825  92.3874 267.7465 13.15548960236095
ONEWEB-0226             
1 48793U 21045AC  26105.22729938  .00000113  00000+0  26648-3 0  9992
2 48793  87.8936 271.7527 0002079  95.6858 264.4510 13.15548650236072
ONEWEB-0224             
1 48794U 21045AD  26105.19085556 -.00000057  00000+0 -18669-3 0  9993
2 48794  87.8935 271.7962 0001704  65.7299 294.4010 13.15546931235994
ONEWEB-0233             
1 48795U 21045AE  26105.19548296 -.00000028  00000+0 -10787-3 0  9990
2 48795  87.8932 271.8036 0001978  88.0037 272.1320 13.15547810236014
